ARCTIC WEATHER SATELLITE
1 60543U 24149CD  26116.77259119  .00000855  00000+0  94739-4 0  9998
2 60543  97.6817 188.7023 0000608 288.6758  71.4393 14.89769039 91648
CAPELLA-15 (ACADIA-5)   
1 60544U 24149CE  26116.76401024  .00004095  00000+0  40492-3 0  9998
2 60544  97.6793 190.9414 0003098 226.7475 133.3486 14.92437534 92183
HAWK-10B                
1 60545U 24149CF  26116.74853926  .00002016  00000+0  18323-3 0  9998
2 60545  97.6821 192.9535 0003857 259.3749 100.7039 14.96350854 92298
ICEYE-X39               
1 60546U 24149CG  26116.76954874  .00005522  00000+0  45347-3 0  9996
2 60546  97.6827 194.4839 0001118 195.9622 164.1566 14.99592218 92410
UMBRA-10                
1 60547U 24149CH  26116.88878576  .00017697  00000+0  91138-3 0  9999
2 60547  97.6968 203.3088 0002452 131.9460 228.1982 15.16463583 92959
ICEYE-X33               
1 60548U 24149CJ  26116.83469897  .00005099  00000+0  40510-3 0  9998
2 60548  97.7118 196.3078 0002272  13.0181 347.1101 15.00900278 92504
ICEYE-X40               
1 60549U 24149CK  26116.79687640  .00001473  00000+0  13049-3 0  9991
2 60549  97.6812 194.1233 0003694 243.6159 116.4684 14.97764747 92382
SATELIOT_1              
1 60550U 24149CL  26116.79153519  .00001685  00000+0  14825-3 0  9994
2 60550  97.6755 193.5512 0005432 243.0272 117.0396 14.97838162 92374
BRO-14                  
1 60551U 24149CM  26116.76392457  .00002331  00000+0  21246-3 0  9992
2 60551  97.6886 193.4657 0004993 268.3817  91.6833 14.96082387 92300
SATELIOT_3              
1 60552U 24149CN  26116.70019901  .00003062  00000+0  26531-3 0  9991
2 60552  97.6837 194.2039 0003194 243.7477 116.3418 14.97844369 92379
BRO-15                  
1 60553U 24149CP  26116.74501992  .00001191  00000+0  11116-3 0  9996
2 60553  97.6810 193.0976 0006633 255.9813 104.0671 14.96029979 92318
UM5-RIBAT               
1 60554U 24149CQ  26116.73839006  .00003618  00000+0  28973-3 0  9991
2 60554  97.6673 195.2316 0001881 139.0964 221.0401 15.00782349 92478
UM5-EOSAT               
1 60555U 24149CR  26116.78567295  .00003457  00000+0  27411-3 0  9992
2 60555  97.6678 196.1707 0004986 279.4781  80.5879 15.01190428 92506
LASARSAT                
1 62391U 24247Q   26116.50090443  .00036052  00000+0  79791-3 0  9992
2 62391  44.9748 191.9414 0005523 356.8551   3.2302 15.43227216 75326
CROCUBE                 
1 62394U 24247T   26116.48990342  .00039267  00000+0  82582-3 0  9992
2 62394  44.9717 190.0780 0005198 355.2969   4.7870 15.44701641 75343
TEVEL2-4                
1 63213U 25052D   26116.70395879  .00022653  00000+0  71632-3 0  9992
2 63213  97.3963  13.0669 0000868 353.6326   6.4905 15.32797336 62221
