[{"OBJECT_NAME":"ARCTIC WEATHER SATELLITE","OBJECT_ID":"2024-149CD","EPOCH":"2026-04-26T18:32:31.878816","MEAN_MOTION":14.89769039,"ECCENTRICITY":6.085e-5,"INCLINATION":97.6817,"RA_OF_ASC_NODE":188.7023,"ARG_OF_PERICENTER":288.6758,"MEAN_ANOMALY":71.4393,"EPHEMERIS_TYPE":0,"CLASSIFICATION_TYPE":"U","NORAD_CAT_ID":60543,"ELEMENT_SET_NO":999,"REV_AT_EPOCH":9164,"BSTAR":9.4738665e-5,"MEAN_MOTION_DOT":8.55e-6,"MEAN_MOTION_DDOT":0},{"OBJECT_NAME":"CAPELLA-15 (ACADIA-5)","OBJECT_ID":"2024-149CE","EPOCH":"2026-04-26T18:20:10.484736","MEAN_MOTION":14.92437534,"ECCENTRICITY":0.00030987,"INCLINATION":97.6793,"RA_OF_ASC_NODE":190.9414,"ARG_OF_PERICENTER":226.7475,"MEAN_ANOMALY":133.3486,"EPHEMERIS_TYPE":0,"CLASSIFICATION_TYPE":"U","NORAD_CAT_ID":60544,"ELEMENT_SET_NO":999,"REV_AT_EPOCH":9218,"BSTAR":0.00040491696,"MEAN_MOTION_DOT":4.095e-5,"MEAN_MOTION_DDOT":0},{"OBJECT_NAME":"HAWK-10B","OBJECT_ID":"2024-149CF","EPOCH":"2026-04-26T17:57:53.792064","MEAN_MOTION":14.96350854,"ECCENTRICITY":0.00038571,"INCLINATION":97.6821,"RA_OF_ASC_NODE":192.9535,"ARG_OF_PERICENTER":259.3749,"MEAN_ANOMALY":100.7039,"EPHEMERIS_TYPE":0,"CLASSIFICATION_TYPE":"U","NORAD_CAT_ID":60545,"ELEMENT_SET_NO":999,"REV_AT_EPOCH":9229,"BSTAR":0.00018322918,"MEAN_MOTION_DOT":2.016e-5,"MEAN_MOTION_DDOT":0},{"OBJECT_NAME":"ICEYE-X39","OBJECT_ID":"2024-149CG","EPOCH":"2026-04-26T18:28:09.011136","MEAN_MOTION":14.99592218,"ECCENTRICITY":0.0001118,"INCLINATION":97.6827,"RA_OF_ASC_NODE":194.4839,"ARG_OF_PERICENTER":195.9622,"MEAN_ANOMALY":164.1566,"EPHEMERIS_TYPE":0,"CLASSIFICATION_TYPE":"U","NORAD_CAT_ID":60546,"ELEMENT_SET_NO":999,"REV_AT_EPOCH":9241,"BSTAR":0.00045347199,"MEAN_MOTION_DOT":5.522e-5,"MEAN_MOTION_DDOT":0},{"OBJECT_NAME":"UMBRA-10","OBJECT_ID":"2024-149CH","EPOCH":"2026-04-26T21:19:51.089664","MEAN_MOTION":15.16463583,"ECCENTRICITY":0.00024527,"INCLINATION":97.6968,"RA_OF_ASC_NODE":203.3088,"ARG_OF_PERICENTER":131.946,"MEAN_ANOMALY":228.1982,"EPHEMERIS_TYPE":0,"CLASSIFICATION_TYPE":"U","NORAD_CAT_ID":60547,"ELEMENT_SET_NO":999,"REV_AT_EPOCH":9295,"BSTAR":0.00091137935,"MEAN_MOTION_DOT":0.00017697,"MEAN_MOTION_DDOT":0},{"OBJECT_NAME":"ICEYE-X33","OBJECT_ID":"2024-149CJ","EPOCH":"2026-04-26T20:01:57.991008","MEAN_MOTION":15.00900278,"ECCENTRICITY":0.00022725,"INCLINATION":97.7118,"RA_OF_ASC_NODE":196.3078,"ARG_OF_PERICENTER":13.0181,"MEAN_ANOMALY":347.1101,"EPHEMERIS_TYPE":0,"CLASSIFICATION_TYPE":"U","NORAD_CAT_ID":60548,"ELEMENT_SET_NO":999,"REV_AT_EPOCH":9250,"BSTAR":0.00040510081,"MEAN_MOTION_DOT":5.099e-5,"MEAN_MOTION_DDOT":0},{"OBJECT_NAME":"ICEYE-X40","OBJECT_ID":"2024-149CK","EPOCH":"2026-04-26T19:07:30.120960","MEAN_MOTION":14.97764747,"ECCENTRICITY":0.0003694,"INCLINATION":97.6812,"RA_OF_ASC_NODE":194.1233,"ARG_OF_PERICENTER":243.6159,"MEAN_ANOMALY":116.4684,"EPHEMERIS_TYPE":0,"CLASSIFICATION_TYPE":"U","NORAD_CAT_ID":60549,"ELEMENT_SET_NO":999,"REV_AT_EPOCH":9238,"BSTAR":0.00013049477,"MEAN_MOTION_DOT":1.473e-5,"MEAN_MOTION_DDOT":0},{"OBJECT_NAME":"SATELIOT_1","OBJECT_ID":"2024-149CL","EPOCH":"2026-04-26T18:59:48.640416","MEAN_MOTION":14.97838162,"ECCENTRICITY":0.00054329,"INCLINATION":97.6755,"RA_OF_ASC_NODE":193.5512,"ARG_OF_PERICENTER":243.0272,"MEAN_ANOMALY":117.0396,"EPHEMERIS_TYPE":0,"CLASSIFICATION_TYPE":"U","NORAD_CAT_ID":60550,"ELEMENT_SET_NO":999,"REV_AT_EPOCH":9237,"BSTAR":0.00014824751,"MEAN_MOTION_DOT":1.685e-5,"MEAN_MOTION_DDOT":0},{"OBJECT_NAME":"BRO-14","OBJECT_ID":"2024-149CM","EPOCH":"2026-04-26T18:20:03.082848","MEAN_MOTION":14.96082387,"ECCENTRICITY":0.00049934,"INCLINATION":97.6886,"RA_OF_ASC_NODE":193.4657,"ARG_OF_PERICENTER":268.3817,"MEAN_ANOMALY":91.6833,"EPHEMERIS_TYPE":0,"CLASSIFICATION_TYPE":"U","NORAD_CAT_ID":60551,"ELEMENT_SET_NO":999,"REV_AT_EPOCH":9230,"BSTAR":0.00021245866,"MEAN_MOTION_DOT":2.331e-5,"MEAN_MOTION_DDOT":0},{"OBJECT_NAME":"SATELIOT_3","OBJECT_ID":"2024-149CN","EPOCH":"2026-04-26T16:48:17.194464","MEAN_MOTION":14.97844369,"ECCENTRICITY":0.00031945,"INCLINATION":97.6837,"RA_OF_ASC_NODE":194.2039,"ARG_OF_PERICENTER":243.7477,"MEAN_ANOMALY":116.3418,"EPHEMERIS_TYPE":0,"CLASSIFICATION_TYPE":"U","NORAD_CAT_ID":60552,"ELEMENT_SET_NO":999,"REV_AT_EPOCH":9237,"BSTAR":0.00026531375,"MEAN_MOTION_DOT":3.062e-5,"MEAN_MOTION_DDOT":0},{"OBJECT_NAME":"BRO-15","OBJECT_ID":"2024-149CP","EPOCH":"2026-04-26T17:52:49.721088","MEAN_MOTION":14.96029979,"ECCENTRICITY":0.00066337,"INCLINATION":97.681,"RA_OF_ASC_NODE":193.0976,"ARG_OF_PERICENTER":255.9813,"MEAN_ANOMALY":104.0671,"EPHEMERIS_TYPE":0,"CLASSIFICATION_TYPE":"U","NORAD_CAT_ID":60553,"ELEMENT_SET_NO":999,"REV_AT_EPOCH":9231,"BSTAR":0.00011116491,"MEAN_MOTION_DOT":1.191e-5,"MEAN_MOTION_DDOT":0},{"OBJECT_NAME":"UM5-RIBAT","OBJECT_ID":"2024-149CQ","EPOCH":"2026-04-26T17:43:16.901184","MEAN_MOTION":15.00782349,"ECCENTRICITY":0.00018816,"INCLINATION":97.6673,"RA_OF_ASC_NODE":195.2316,"ARG_OF_PERICENTER":139.0964,"MEAN_ANOMALY":221.0401,"EPHEMERIS_TYPE":0,"CLASSIFICATION_TYPE":"U","NORAD_CAT_ID":60554,"ELEMENT_SET_NO":999,"REV_AT_EPOCH":9247,"BSTAR":0.00028973022,"MEAN_MOTION_DOT":3.618e-5,"MEAN_MOTION_DDOT":0},{"OBJECT_NAME":"UM5-EOSAT","OBJECT_ID":"2024-149CR","EPOCH":"2026-04-26T18:51:22.142880","MEAN_MOTION":15.01190428,"ECCENTRICITY":0.00049868,"INCLINATION":97.6678,"RA_OF_ASC_NODE":196.1707,"ARG_OF_PERICENTER":279.4781,"MEAN_ANOMALY":80.5879,"EPHEMERIS_TYPE":0,"CLASSIFICATION_TYPE":"U","NORAD_CAT_ID":60555,"ELEMENT_SET_NO":999,"REV_AT_EPOCH":9250,"BSTAR":0.00027410578,"MEAN_MOTION_DOT":3.457e-5,"MEAN_MOTION_DDOT":0},{"OBJECT_NAME":"LASARSAT","OBJECT_ID":"2024-247Q","EPOCH":"2026-04-26T12:01:18.142752","MEAN_MOTION":15.43227216,"ECCENTRICITY":0.0005523,"INCLINATION":44.9748,"RA_OF_ASC_NODE":191.9414,"ARG_OF_PERICENTER":356.8551,"MEAN_ANOMALY":3.2302,"EPHEMERIS_TYPE":0,"CLASSIFICATION_TYPE":"U","NORAD_CAT_ID":62391,"ELEMENT_SET_NO":999,"REV_AT_EPOCH":7532,"BSTAR":0.00079791489,"MEAN_MOTION_DOT":0.00036052,"MEAN_MOTION_DDOT":0},{"OBJECT_NAME":"CROCUBE","OBJECT_ID":"2024-247T","EPOCH":"2026-04-26T11:45:27.655488","MEAN_MOTION":15.44701641,"ECCENTRICITY":0.00051985,"INCLINATION":44.9717,"RA_OF_ASC_NODE":190.078,"ARG_OF_PERICENTER":355.2969,"MEAN_ANOMALY":4.787,"EPHEMERIS_TYPE":0,"CLASSIFICATION_TYPE":"U","NORAD_CAT_ID":62394,"ELEMENT_SET_NO":999,"REV_AT_EPOCH":7534,"BSTAR":0.00082582061,"MEAN_MOTION_DOT":0.00039267,"MEAN_MOTION_DDOT":0},{"OBJECT_NAME":"TEVEL2-4","OBJECT_ID":"2025-052D","EPOCH":"2026-04-26T16:53:42.039456","MEAN_MOTION":15.32797336,"ECCENTRICITY":8.68e-5,"INCLINATION":97.3963,"RA_OF_ASC_NODE":13.0669,"ARG_OF_PERICENTER":353.6326,"MEAN_ANOMALY":6.4905,"EPHEMERIS_TYPE":0,"CLASSIFICATION_TYPE":"U","NORAD_CAT_ID":63213,"ELEMENT_SET_NO":999,"REV_AT_EPOCH":6222,"BSTAR":0.00071632411,"MEAN_MOTION_DOT":0.00022653,"MEAN_MOTION_DDOT":0}]
